CCSDS_OMM_VERS = 2.0
CREATION_DATE  = 
ORIGINATOR     = 

OBJECT_NAME    = STARLINK-36432
OBJECT_ID      = 2026-003J
CENTER_NAME    = EARTH
REF_FRAME      = TEME
TIME_SYSTEM    = UTC
MEAN_ELEMENT_THEORY = SGP/SGP4

EPOCH          = 2026-01-22T06:00:02.999808
MEAN_MOTION    = 15.78456369
ECCENTRICITY   = .00012674
INCLINATION    = 42.9986
RA_OF_ASC_NODE = 134.7303
ARG_OF_PERICENTER = 265.8494
MEAN_ANOMALY   = 316.6273

EPHEMERIS_TYPE = 0
CLASSIFICATION_TYPE = U
NORAD_CAT_ID   = 67342
ELEMENT_SET_NO = 999
REV_AT_EPOCH   = 319
BSTAR          = -.1018353E-1
MEAN_MOTION_DOT = -.1590077E-1
MEAN_MOTION_DDOT = 0

CCSDS_OMM_VERS = 2.0
CREATION_DATE  = 
ORIGINATOR     = 

OBJECT_NAME    = STARLINK-36458
OBJECT_ID      = 2026-003K
CENTER_NAME    = EARTH
REF_FRAME      = TEME
TIME_SYSTEM    = UTC
MEAN_ELEMENT_THEORY = SGP/SGP4

EPOCH          = 2026-01-22T06:00:02.999808
MEAN_MOTION    = 15.78433911
ECCENTRICITY   = .00012174
INCLINATION    = 42.9985
RA_OF_ASC_NODE = 134.7256
ARG_OF_PERICENTER = 269.9191
MEAN_ANOMALY   = 314.5781

EPHEMERIS_TYPE = 0
CLASSIFICATION_TYPE = U
NORAD_CAT_ID   = 67343
ELEMENT_SET_NO = 999
REV_AT_EPOCH   = 320
BSTAR          = -.10259713E-1
MEAN_MOTION_DOT = -.1598949E-1
MEAN_MOTION_DDOT = 0

CCSDS_OMM_VERS = 2.0
CREATION_DATE  = 
ORIGINATOR     = 

OBJECT_NAME    = STARLINK-36422
OBJECT_ID      = 2026-003L
CENTER_NAME    = EARTH
REF_FRAME      = TEME
TIME_SYSTEM    = UTC
MEAN_ELEMENT_THEORY = SGP/SGP4

EPOCH          = 2026-01-22T06:00:02.999808
MEAN_MOTION    = 15.78345774
ECCENTRICITY   = .00012687
INCLINATION    = 42.9982
RA_OF_ASC_NODE = 134.7191
ARG_OF_PERICENTER = 268.1118
MEAN_ANOMALY   = 318.6473

EPHEMERIS_TYPE = 0
CLASSIFICATION_TYPE = U
NORAD_CAT_ID   = 67344
ELEMENT_SET_NO = 999
REV_AT_EPOCH   = 319
BSTAR          = -.10371823E-1
MEAN_MOTION_DOT = -.1608516E-1
MEAN_MOTION_DDOT = 0

CCSDS_OMM_VERS = 2.0
CREATION_DATE  = 
ORIGINATOR     = 

OBJECT_NAME    = STARLINK-35676
OBJECT_ID      = 2026-003M
CENTER_NAME    = EARTH
REF_FRAME      = TEME
TIME_SYSTEM    = UTC
MEAN_ELEMENT_THEORY = SGP/SGP4

EPOCH          = 2026-01-22T06:00:02.999808
MEAN_MOTION    = 15.78267699
ECCENTRICITY   = .00013594
INCLINATION    = 42.9984
RA_OF_ASC_NODE = 134.7139
ARG_OF_PERICENTER = 268.1993
MEAN_ANOMALY   = 320.7739

EPHEMERIS_TYPE = 0
CLASSIFICATION_TYPE = U
NORAD_CAT_ID   = 67345
ELEMENT_SET_NO = 999
REV_AT_EPOCH   = 319
BSTAR          = -.10514466E-1
MEAN_MOTION_DOT = -.1655333E-1
MEAN_MOTION_DDOT = 0

CCSDS_OMM_VERS = 2.0
CREATION_DATE  = 
ORIGINATOR     = 

OBJECT_NAME    = STARLINK-36472
OBJECT_ID      = 2026-003N
CENTER_NAME    = EARTH
REF_FRAME      = TEME
TIME_SYSTEM    = UTC
MEAN_ELEMENT_THEORY = SGP/SGP4

EPOCH          = 2026-01-22T06:00:02.999808
MEAN_MOTION    = 15.78233486
ECCENTRICITY   = .00013408
INCLINATION    = 42.9986
RA_OF_ASC_NODE = 134.7084
ARG_OF_PERICENTER = 267.6122
MEAN_ANOMALY   = 323.4088

EPHEMERIS_TYPE = 0
CLASSIFICATION_TYPE = U
NORAD_CAT_ID   = 67346
ELEMENT_SET_NO = 999
REV_AT_EPOCH   = 319
BSTAR          = -.10553161E-1
MEAN_MOTION_DOT = -.1658431E-1
MEAN_MOTION_DDOT = 0

CCSDS_OMM_VERS = 2.0
CREATION_DATE  = 
ORIGINATOR     = 

OBJECT_NAME    = STARLINK-36420
OBJECT_ID      = 2026-003P
CENTER_NAME    = EARTH
REF_FRAME      = TEME
TIME_SYSTEM    = UTC
MEAN_ELEMENT_THEORY = SGP/SGP4

EPOCH          = 2026-01-22T06:00:02.999808
MEAN_MOTION    = 15.78111914
ECCENTRICITY   = .0001449
INCLINATION    = 42.9988
RA_OF_ASC_NODE = 134.6978
ARG_OF_PERICENTER = 273.9225
MEAN_ANOMALY   = 321.3777

EPHEMERIS_TYPE = 0
CLASSIFICATION_TYPE = U
NORAD_CAT_ID   = 67347
ELEMENT_SET_NO = 999
REV_AT_EPOCH   = 320
BSTAR          = -.10787611E-1
MEAN_MOTION_DOT = -.1682858E-1
MEAN_MOTION_DDOT = 0

CCSDS_OMM_VERS = 2.0
CREATION_DATE  = 
ORIGINATOR     = 

OBJECT_NAME    = STARLINK-36467
OBJECT_ID      = 2026-003Q
CENTER_NAME    = EARTH
REF_FRAME      = TEME
TIME_SYSTEM    = UTC
MEAN_ELEMENT_THEORY = SGP/SGP4

EPOCH          = 2026-01-22T06:00:02.999808
MEAN_MOTION    = 15.78150182
ECCENTRICITY   = .00014334
INCLINATION    = 42.9987
RA_OF_ASC_NODE = 134.7033
ARG_OF_PERICENTER = 274.1454
MEAN_ANOMALY   = 319.1006

EPHEMERIS_TYPE = 0
CLASSIFICATION_TYPE = U
NORAD_CAT_ID   = 67348
ELEMENT_SET_NO = 999
REV_AT_EPOCH   = 320
BSTAR          = -.10712112E-1
MEAN_MOTION_DOT = -.167499E-1
MEAN_MOTION_DDOT = 0

CCSDS_OMM_VERS = 2.0
CREATION_DATE  = 
ORIGINATOR     = 

OBJECT_NAME    = STARLINK-36457
OBJECT_ID      = 2026-003R
CENTER_NAME    = EARTH
REF_FRAME      = TEME
TIME_SYSTEM    = UTC
MEAN_ELEMENT_THEORY = SGP/SGP4

EPOCH          = 2026-01-22T06:00:02.999808
MEAN_MOTION    = 15.78013533
ECCENTRICITY   = .00014179
INCLINATION    = 42.9987
RA_OF_ASC_NODE = 134.6923
ARG_OF_PERICENTER = 273.8034
MEAN_ANOMALY   = 323.7402

EPHEMERIS_TYPE = 0
CLASSIFICATION_TYPE = U
NORAD_CAT_ID   = 67349
ELEMENT_SET_NO = 999
REV_AT_EPOCH   = 320
BSTAR          = -.10920656E-1
MEAN_MOTION_DOT = -.1694469E-1
MEAN_MOTION_DDOT = 0

CCSDS_OMM_VERS = 2.0
CREATION_DATE  = 
ORIGINATOR     = 

OBJECT_NAME    = STARLINK-36475
OBJECT_ID      = 2026-003S
CENTER_NAME    = EARTH
REF_FRAME      = TEME
TIME_SYSTEM    = UTC
MEAN_ELEMENT_THEORY = SGP/SGP4

EPOCH          = 2026-01-22T06:00:02.999808
MEAN_MOTION    = 15.77922140
ECCENTRICITY   = .00011784
INCLINATION    = 42.9986
RA_OF_ASC_NODE = 134.6866
ARG_OF_PERICENTER = 272.2695
MEAN_ANOMALY   = 327.4721

EPHEMERIS_TYPE = 0
CLASSIFICATION_TYPE = U
NORAD_CAT_ID   = 67350
ELEMENT_SET_NO = 999
REV_AT_EPOCH   = 319
BSTAR          = -.1101391E-1
MEAN_MOTION_DOT = -.1700824E-1
MEAN_MOTION_DDOT = 0

CCSDS_OMM_VERS = 2.0
CREATION_DATE  = 
ORIGINATOR     = 

OBJECT_NAME    = STARLINK-36478
OBJECT_ID      = 2026-003T
CENTER_NAME    = EARTH
REF_FRAME      = TEME
TIME_SYSTEM    = UTC
MEAN_ELEMENT_THEORY = SGP/SGP4

EPOCH          = 2026-01-22T06:00:02.999808
MEAN_MOTION    = 15.77902995
ECCENTRICITY   = .00012431
INCLINATION    = 42.9987
RA_OF_ASC_NODE = 134.6816
ARG_OF_PERICENTER = 266.8221
MEAN_ANOMALY   = 334.9106

EPHEMERIS_TYPE = 0
CLASSIFICATION_TYPE = U
NORAD_CAT_ID   = 67351
ELEMENT_SET_NO = 999
REV_AT_EPOCH   = 319
BSTAR          = -.11059148E-1
MEAN_MOTION_DOT = -.1705733E-1
MEAN_MOTION_DDOT = 0

CCSDS_OMM_VERS = 2.0
CREATION_DATE  = 
ORIGINATOR     = 

OBJECT_NAME    = STARLINK-36479
OBJECT_ID      = 2026-003U
CENTER_NAME    = EARTH
REF_FRAME      = TEME
TIME_SYSTEM    = UTC
MEAN_ELEMENT_THEORY = SGP/SGP4

EPOCH          = 2026-01-22T06:00:02.999808
MEAN_MOTION    = 15.77872066
ECCENTRICITY   = .00012943
INCLINATION    = 42.9987
RA_OF_ASC_NODE = 134.6765
ARG_OF_PERICENTER = 263.5325
MEAN_ANOMALY   = 340.2197

EPHEMERIS_TYPE = 0
CLASSIFICATION_TYPE = U
NORAD_CAT_ID   = 67352
ELEMENT_SET_NO = 999
REV_AT_EPOCH   = 320
BSTAR          = -.11122809E-1
MEAN_MOTION_DOT = -.1712317E-1
MEAN_MOTION_DDOT = 0

CCSDS_OMM_VERS = 2.0
CREATION_DATE  = 
ORIGINATOR     = 

OBJECT_NAME    = STARLINK-36474
OBJECT_ID      = 2026-003V
CENTER_NAME    = EARTH
REF_FRAME      = TEME
TIME_SYSTEM    = UTC
MEAN_ELEMENT_THEORY = SGP/SGP4

EPOCH          = 2026-01-22T06:00:02.999808
MEAN_MOTION    = 15.77801957
ECCENTRICITY   = .00012053
INCLINATION    = 42.9987
RA_OF_ASC_NODE = 134.6715
ARG_OF_PERICENTER = 263.2352
MEAN_ANOMALY   = 342.6496

EPHEMERIS_TYPE = 0
CLASSIFICATION_TYPE = U
NORAD_CAT_ID   = 67353
ELEMENT_SET_NO = 999
REV_AT_EPOCH   = 320
BSTAR          = -.11263642E-1
MEAN_MOTION_DOT = -.1726513E-1
MEAN_MOTION_DDOT = 0

